MALLIGYONG-1            
1 58400U 23179A   24120.86508632  .00005920  00000+0  26024-3 0  9998
2 58400  97.4093   8.4422 0011146  76.6851 283.5627 15.22218930 24379
